{
    "links": {
        "self": "http://www.neowsapp.com/rest/v1/neo/3772694?api_key=iIulBulltgU6a56xZRHN4H3l9WmuAYTsLGpBGhQ2"
    },
    "id": "3772694",
    "neo_reference_id": "3772694",
    "name": "(2017 FK90)",
    "designation": "2017 FK90",
    "nasa_jpl_url": "http://ssd.jpl.nasa.gov/sbdb.cgi?sstr=3772694",
    "absolute_magnitude_h": 22.6,
    "estimated_diameter": {
        "kilometers": {
            "estimated_diameter_min": 0.0802703167,
            "estimated_diameter_max": 0.1794898848
        },
        "meters": {
            "estimated_diameter_min": 80.2703167283,
            "estimated_diameter_max": 179.4898847799
        },
        "miles": {
            "estimated_diameter_min": 0.049877647,
            "estimated_diameter_max": 0.1115298092
        },
        "feet": {
            "estimated_diameter_min": 263.3540659348,
            "estimated_diameter_max": 588.8775935812
        }
    },
    "is_potentially_hazardous_asteroid": false,
    "close_approach_data": [
        {
            "close_approach_date": "2017-03-17",
            "close_approach_date_full": "2017-Mar-17 22:58",
            "epoch_date_close_approach": 1489791480000,
            "relative_velocity": {
                "kilometers_per_second": "14.1450296061",
                "kilometers_per_hour": "50922.1065820064",
                "miles_per_hour": "31641.0167259139"
            },
            "miss_distance": {
                "astronomical": "0.1644370882",
                "lunar": "63.9660273098",
                "kilometers": "24599438.143722134",
                "miles": "15285382.0699240892"
            },
            "orbiting_body": "Earth"
        }
    ],
    "orbital_data": {
        "orbit_id": "7",
        "orbit_determination_date": "2017-04-28 06:19:26",
        "first_observation_date": "2017-03-22",
        "last_observation_date": "2017-04-18",
        "data_arc_in_days": 27,
        "observations_used": 55,
        "orbit_uncertainty": "7",
        "minimum_orbit_intersection": ".0102899",
        "jupiter_tisserand_invariant": "3.209",
        "epoch_osculation": "2459000.5",
        "eccentricity": ".6060819120012544",
        "semi_major_axis": "2.456746069644288",
        "inclination": "3.460799966165547",
        "ascending_node_longitude": "161.7345183711639",
        "orbital_period": "1406.497069940986",
        "perihelion_distance": ".9677567144527113",
        "perihelion_argument": "329.6436337398445",
        "aphelion_distance": "3.945735424835866",
        "perihelion_time": "2459206.564988384874",
        "mean_anomaly": "307.2566296766853",
        "mean_motion": ".2559550301907881",
        "equinox": "J2000",
        "orbit_class": {
            "orbit_class_type": "APO",
            "orbit_class_description": "Near-Earth asteroid orbits which cross the Earth’s orbit similar to that of 1862 Apollo",
            "orbit_class_range": "a (semi-major axis) > 1.0 AU; q (perihelion) < 1.017 AU"
        }
    },
    "is_sentry_object": false
}